{"type":"FeatureCollection","features":[{"type":"Feature","geometry":{"geodesic":false,"type":"Polygon","coordinates":[[[-74.38260309175736,40.42494647621227],[-73.62783021407198,40.42494647621227],[-73.62783021407198,41.00076371044744],[-74.38260309175736,41.00076371044744],[-74.38260309175736,40.42494647621227]]]},"id":"0","properties":{"country":"USA","end":"2023-09-01","name":"New York","start":"2023-08-01"}},{"type":"Feature","geometry":{"geodesic":false,"type":"Polygon","coordinates":[[[-118.58828140018579,33.76434657812652],[-117.8977580409139,33.76434657812652],[-117.8977580409139,34.340163710447435],[-118.58828140018579,34.340163710447435],[-118.58828140018579,33.76434657812652]]]},"id":"1","properties":{"country":"USA","end":"2023-09-01","name":"Los Angeles","start":"2023-08-01"}},{"type":"Feature","geometry":{"geodesic":false,"type":"Polygon","coordinates":[[[-88.01318286478732,41.59024645634988],[-87.24480640527055,41.59024645634988],[-87.24480640527055,42.16606371044744],[-88.01318286478732,42.16606371044744],[-88.01318286478732,41.59024645634988]]]},"id":"2","properties":{"country":"USA","end":"2023-09-01","name":"Chicago","start":"2023-08-01"}},{"type":"Feature","geometry":{"geodesic":false,"type":"Polygon","coordinates":[[[-95.69869263556338,29.47254663562413],[-95.03964795839823,29.47254663562413],[-95.03964795839823,30.048363710447436],[-95.69869263556338,30.048363710447436],[-95.69869263556338,29.47254663562413]]]},"id":"3","properties":{"country":"USA","end":"2023-09-01","name":"Houston","start":"2023-08-01"}},{"type":"Feature","geometry":{"geodesic":false,"type":"Polygon","coordinates":[[[-80.50884204823662,25.47384668496124],[-79.8735763203307,25.47384668496124],[-79.8735763203307,26.049663710447433],[-80.50884204823662,26.049663710447433],[-80.50884204823662,25.47384668496124]]]},"id":"4","properties":{"country":"USA","end":"2023-09-01","name":"Miami","start":"2023-08-01"}},{"type":"Feature","geometry":{"geodesic":false,"type":"Polygon","coordinates":[[[-79.77771426062186,43.365346424670285],[-78.987002245697,43.365346424670285],[-78.987002245697,43.94116371044743],[-79.77771426062186,43.94116371044743],[-79.77771426062186,43.365346424670285]]]},"id":"5","properties":{"country":"Canada","end":"2023-09-01","name":"Toronto","start":"2023-08-01"}},{"type":"Feature","geometry":{"geodesic":false,"type":"Polygon","coordinates":[[[-123.55821720649728,48.99484631031423],[-122.68121157465748,48.99484631031423],[-122.68121157465748,49.57066371044743],[-123.55821720649728,49.57066371044743],[-123.55821720649728,48.99484631031423]]]},"id":"6","properties":{"country":"Canada","end":"2023-09-01","name":"Vancouver","start":"2023-08-01"}},{"type":"Feature","geometry":{"geodesic":false,"type":"Polygon","coordinates":[[[-99.43600477495815,19.14474675683817],[-98.82931167967288,19.14474675683817],[-98.82931167967288,19.720563710447426],[-99.43600477495815,19.720563710447426],[-99.43600477495815,19.14474675683817]]]},"id":"7","properties":{"country":"Mexico","end":"2023-09-01","name":"Mexico City","start":"2023-08-01"}},{"type":"Feature","geometry":{"geodesic":false,"type":"Polygon","coordinates":[[[-100.6329422313517,25.398746685854967],[-99.99807746813127,25.398746685854967],[-99.99807746813127,25.97456371044743],[-100.6329422313517,25.97456371044743],[-100.6329422313517,25.398746685854967]]]},"id":"8","properties":{"country":"Mexico","end":"2023-09-01","name":"Monterrey","start":"2023-08-01"}},{"type":"Feature","geometry":{"geodesic":false,"type":"Polygon","coordinates":[[[-103.65477568390584,20.37184674339161],[-103.0433238028852,20.37184674339161],[-103.0433238028852,20.94766371044743],[-103.65477568390584,20.94766371044743],[-103.65477568390584,20.37184674339161]]]},"id":"9","properties":{"country":"Mexico","end":"2023-09-01","name":"Guadalajara","start":"2023-08-01"}},{"type":"Feature","geometry":{"geodesic":false,"type":"Polygon","coordinates":[[[-84.73135994057165,33.461146582369366],[-84.04328734535878,33.461146582369366],[-84.04328734535878,34.03696371044743],[-84.73135994057165,34.03696371044743],[-84.73135994057165,33.461146582369366]]]},"id":"10","properties":{"country":"USA","end":"2023-09-01","name":"Atlanta","start":"2023-08-01"}},{"type":"Feature","geometry":{"geodesic":false,"type":"Polygon","coordinates":[[[-97.13656430489621,32.48884659577847],[-96.45610737790817,32.48884659577847],[-96.45610737790817,33.06466371044743],[-97.13656430489621,33.06466371044743],[-97.13656430489621,32.48884659577847]]]},"id":"11","properties":{"country":"USA","end":"2023-09-01","name":"Dallas","start":"2023-08-01"}},{"type":"Feature","geometry":{"geodesic":false,"type":"Polygon","coordinates":[[[-112.41616689920345,33.16054658654662],[-111.73048805155683,33.16054658654662],[-111.73048805155683,33.73636371044742],[-112.41616689920345,33.73636371044742],[-112.41616689920345,33.16054658654662]]]},"id":"12","properties":{"country":"USA","end":"2023-09-01","name":"Phoenix","start":"2023-08-01"}},{"type":"Feature","geometry":{"geodesic":false,"type":"Polygon","coordinates":[[[-73.9745425809833,45.21384638964656],[-73.15828992264358,45.21384638964656],[-73.15828992264358,45.78966371044743],[-73.9745425809833,45.78966371044743],[-73.9745425809833,45.21384638964656]]]},"id":"13","properties":{"country":"Canada","end":"2023-09-01","name":"Montreal","start":"2023-08-01"}},{"type":"Feature","geometry":{"geodesic":false,"type":"Polygon","coordinates":[[[-122.75542748887413,47.31834634688863],[-121.90689749990104,47.31834634688863],[-121.90689749990104,47.89416371044743],[-122.75542748887413,47.89416371044743],[-122.75542748887413,47.31834634688863]]]},"id":"14","properties":{"country":"USA","end":"2023-09-01","name":"Seattle","start":"2023-08-01"}},{"type":"Feature","geometry":{"geodesic":false,"type":"Polygon","coordinates":[[[-46.94495755346876,-23.838352804420193],[-46.320808663033574,-23.838352804420193],[-46.320808663033574,-23.26253628955257],[-46.94495755346876,-23.26253628955257],[-46.94495755346876,-23.838352804420193]]]},"id":"15","properties":{"country":"Brazil","end":"2023-09-01","name":"São Paulo","start":"2023-08-01"}},{"type":"Feature","geometry":{"geodesic":false,"type":"Polygon","coordinates":[[[-43.4830557761886,-23.19465281185053],[-42.861909734807206,-23.19465281185053],[-42.861909734807206,-22.618836289552572],[-43.4830557761886,-22.618836289552572],[-43.4830557761886,-23.19465281185053]]]},"id":"16","properties":{"country":"Brazil","end":"2023-09-01","name":"Rio de Janeiro","start":"2023-08-01"}},{"type":"Feature","geometry":{"geodesic":false,"type":"Polygon","coordinates":[[[-58.728757038497555,-34.89155266232383],[-58.033615158639805,-34.89155266232383],[-58.033615158639805,-34.31573628955257],[-58.728757038497555,-34.31573628955257],[-58.728757038497555,-34.89155266232383]]]},"id":"17","properties":{"country":"Argentina","end":"2023-09-01","name":"Buenos Aires","start":"2023-08-01"}},{"type":"Feature","geometry":{"geodesic":false,"type":"Polygon","coordinates":[[[-77.33489087941942,-12.334252928529274],[-76.7498533012652,-12.334252928529274],[-76.7498533012652,-11.758436289552568],[-77.33489087941942,-11.758436289552568],[-77.33489087941942,-12.334252928529274]]]},"id":"18","properties":{"country":"Peru","end":"2023-09-01","name":"Lima","start":"2023-08-01"}},{"type":"Feature","geometry":{"geodesic":false,"type":"Polygon","coordinates":[[[-71.01175829450673,-33.73675267875353],[-70.32601360658518,-33.73675267875353],[-70.32601360658518,-33.16093628955257],[-71.01175829450673,-33.16093628955257],[-71.01175829450673,-33.73675267875353]]]},"id":"19","properties":{"country":"Chile","end":"2023-09-01","name":"Santiago","start":"2023-08-01"}},{"type":"Feature","geometry":{"geodesic":false,"type":"Polygon","coordinates":[[[-74.35867288413549,4.423146906867163],[-73.78459039919865,4.423146906867163],[-73.78459039919865,4.99896371044743],[-74.35867288413549,4.99896371044743],[-74.35867288413549,4.423146906867163]]]},"id":"20","properties":{"country":"Colombia","end":"2023-09-01","name":"Bogotá","start":"2023-08-01"}},{"type":"Feature","geometry":{"geodesic":false,"type":"Polygon","coordinates":[[[-67.19403132043112,10.192746849900574],[-66.61218523161928,10.192746849900574],[-66.61218523161928,10.768563710447431],[-67.19403132043112,10.768563710447431],[-67.19403132043112,10.192746849900574]]]},"id":"21","properties":{"country":"Venezuela","end":"2023-09-01","name":"Caracas","start":"2023-08-01"}},{"type":"Feature","geometry":{"geodesic":false,"type":"Polygon","coordinates":[[[-75.86850426355565,5.9563468918634745],[-75.2929477433272,5.9563468918634745],[-75.2929477433272,6.532163710447429],[-75.86850426355565,6.532163710447429],[-75.86850426355565,5.9563468918634745]]]},"id":"22","properties":{"country":"Colombia","end":"2023-09-01","name":"Medellín","start":"2023-08-01"}},{"type":"Feature","geometry":{"geodesic":false,"type":"Polygon","coordinates":[[[-48.17937987300957,-16.08205288980794],[-47.58477388345651,-16.08205288980794],[-47.58477388345651,-15.506236289552572],[-48.17937987300957,-15.506236289552572],[-48.17937987300957,-16.08205288980794]]]},"id":"23","properties":{"country":"Brazil","end":"2023-09-01","name":"Brasília","start":"2023-08-01"}},{"type":"Feature","geometry":{"geodesic":false,"type":"Polygon","coordinates":[[[-38.79474402251946,-13.260852919072198],[-38.20760276731311,-13.260852919072198],[-38.20760276731311,-12.685036289552574],[-38.79474402251946,-12.685036289552574],[-38.79474402251946,-13.260852919072198]]]},"id":"24","properties":{"country":"Brazil","end":"2023-09-01","name":"Salvador","start":"2023-08-01"}},{"type":"Feature","geometry":{"geodesic":false,"type":"Polygon","coordinates":[[[-78.7534218119346,-0.46855304557231087],[-78.18127256525725,-0.46855304557231087],[-78.18127256525725,0.1072637104474299],[-78.7534218119346,0.1072637104474299],[-78.7534218119346,-0.46855304557231087]]]},"id":"25","properties":{"country":"Ecuador","end":"2023-09-01","name":"Quito","start":"2023-08-01"}},{"type":"Feature","geometry":{"geodesic":false,"type":"Polygon","coordinates":[[[-68.41722724063801,-16.777552882470907],[-67.82052801729189,-16.777552882470907],[-67.82052801729189,-16.201736289552567],[-68.41722724063801,-16.201736289552567],[-68.41722724063801,-16.777552882470907]]]},"id":"26","properties":{"country":"Bolivia","end":"2023-09-01","name":"La Paz","start":"2023-08-01"}},{"type":"Feature","geometry":{"geodesic":false,"type":"Polygon","coordinates":[[[-0.5861137413832966,51.219346257793646],[0.3330298043029121,51.219346257793646],[0.3330298043029121,51.795163710447426],[-0.5861137413832966,51.795163710447426],[-0.5861137413832966,51.219346257793646]]]},"id":"27","properties":{"country":"UK","end":"2023-09-01","name":"London","start":"2023-08-01"}},{"type":"Feature","geometry":{"geodesic":false,"type":"Polygon","coordinates":[[[1.9184140522862394,48.5687463198389],[2.7879317401936383,48.5687463198389],[2.7879317401936383,49.14456371044743],[1.9184140522862394,49.14456371044743],[1.9184140522862394,48.5687463198389]]]},"id":"28","properties":{"country":"France","end":"2023-09-01","name":"Paris","start":"2023-08-01"}},{"type":"Feature","geometry":{"geodesic":false,"type":"Polygon","coordinates":[[[12.936002612703758,52.232146232171544],[13.876186924338006,52.232146232171544],[13.876186924338006,52.807963710447424],[12.936002612703758,52.807963710447424],[12.936002612703758,52.232146232171544]]]},"id":"29","properties":{"country":"Germany","end":"2023-09-01","name":"Berlin","start":"2023-08-01"}},{"type":"Feature","geometry":{"geodesic":false,"type":"Polygon","coordinates":[[[-4.078743450778699,40.128946481147786],[-3.327300605613845,40.128946481147786],[-3.327300605613845,40.70476371044744],[-4.078743450778699,40.70476371044744],[-4.078743450778699,40.128946481147786]]]},"id":"30","properties":{"country":"Spain","end":"2023-09-01","name":"Madrid","start":"2023-08-01"}},{"type":"Feature","geometry":{"geodesic":false,"type":"Polygon","coordinates":[[[12.1128690587849,41.61494645592116],[12.881542635189458,41.61494645592116],[12.881542635189458,42.19076371044743],[12.1128690587849,42.19076371044743],[12.1128690587849,41.61494645592116]]]},"id":"31","properties":{"country":"Italy","end":"2023-09-01","name":"Rome","start":"2023-08-01"}},{"type":"Feature","geometry":{"geodesic":false,"type":"Polygon","coordinates":[[[8.78302804450492,45.17634639037944],[9.598737656291924,45.17634639037944],[9.598737656291924,45.752163710447434],[8.78302804450492,45.752163710447434],[8.78302804450492,45.17634639037944]]]},"id":"32","properties":{"country":"Italy","end":"2023-09-01","name":"Milan","start":"2023-08-01"}},{"type":"Feature","geometry":{"geodesic":false,"type":"Polygon","coordinates":[[[1.7929342231533527,41.0972464648389],[2.5554575355400218,41.0972464648389],[2.5554575355400218,41.67306371044743],[1.7929342231533527,41.67306371044743],[1.7929342231533527,41.0972464648389]]]},"id":"33","properties":{"country":"Spain","end":"2023-09-01","name":"Barcelona","start":"2023-08-01"}},{"type":"Feature","geometry":{"geodesic":false,"type":"Polygon","coordinates":[[[4.436720047615048,52.07974623610109],[5.373658102632059,52.07974623610109],[5.373658102632059,52.65556371044743],[4.436720047615048,52.65556371044743],[4.436720047615048,52.07974623610109]]]},"id":"34","properties":{"country":"Netherlands","end":"2023-09-01","name":"Amsterdam","start":"2023-08-01"}},{"type":"Feature","geometry":{"geodesic":false,"type":"Polygon","coordinates":[[[3.899664699146178,50.5624462738168],[4.8058063477470325,50.5624462738168],[4.8058063477470325,51.138263710447426],[3.899664699146178,51.138263710447426],[3.899664699146178,50.5624462738168]]]},"id":"35","properties":{"country":"Belgium","end":"2023-09-01","name":"Brussels","start":"2023-08-01"}},{"type":"Feature","geometry":{"geodesic":false,"type":"Polygon","coordinates":[[[15.94552647175556,47.92034633402891],[16.8039819249937,47.92034633402891],[16.8039819249937,48.496163710447426],[15.94552647175556,48.496163710447426],[15.94552647175556,47.92034633402891]]]},"id":"36","properties":{"country":"Austria","end":"2023-09-01","name":"Vienna","start":"2023-08-01"}},{"type":"Feature","geometry":{"geodesic":false,"type":"Polygon","coordinates":[[[20.546271176765682,51.9418462396337],[21.480296773412398,51.9418462396337],[21.480296773412398,52.51766371044743],[20.546271176765682,52.51766371044743],[20.546271176765682,51.9418462396337]]]},"id":"37","properties":{"country":"Poland","end":"2023-09-01","name":"Warsaw","start":"2023-08-01"}},{"type":"Feature","geometry":{"geodesic":false,"type":"Polygon","coordinates":[[[13.99310048257966,49.787646292151216],[14.884519942761775,49.787646292151216],[14.884519942761775,50.363463710447434],[13.99310048257966,50.363463710447434],[13.99310048257966,49.787646292151216]]]},"id":"38","properties":{"country":"Czechia","end":"2023-09-01","name":"Prague","start":"2023-08-01"}},{"type":"Feature","geometry":{"geodesic":false,"type":"Polygon","coordinates":[[[18.617745282246226,47.21004634917097],[19.46452385406413,47.21004634917097],[19.46452385406413,47.78586371044743],[18.617745282246226,47.78586371044743],[18.617745282246226,47.21004634917097]]]},"id":"39","properties":{"country":"Hungary","end":"2023-09-01","name":"Budapest","start":"2023-08-01"}},{"type":"Feature","geometry":{"geodesic":false,"type":"Polygon","coordinates":[[[23.36530610121668,37.69594652016545],[24.091167573534165,37.69594652016545],[24.091167573534165,38.27176371044744],[23.36530610121668,38.27176371044744],[23.36530610121668,37.69594652016545]]]},"id":"40","properties":{"country":"Greece","end":"2023-09-01","name":"Athens","start":"2023-08-01"}},{"type":"Feature","geometry":{"geodesic":false,"type":"Polygon","coordinates":[[[28.60011580901098,40.72034647124327],[29.358261785976502,40.72034647124327],[29.358261785976502,41.29616371044743],[28.60011580901098,41.29616371044743],[28.60011580901098,40.72034647124327]]]},"id":"41","properties":{"country":"Turkey","end":"2023-09-01","name":"Istanbul","start":"2023-08-01"}},{"type":"Feature","geometry":{"geodesic":false,"type":"Polygon","coordinates":[[[37.11021684548646,55.46794614176626],[38.12684632869298,55.46794614176626],[38.12684632869298,56.043763710447436],[37.11021684548646,56.043763710447436],[37.11021684548646,55.46794614176626]]]},"id":"42","properties":{"country":"Russia","end":"2023-09-01","name":"Moscow","start":"2023-08-01"}},{"type":"Feature","geometry":{"geodesic":false,"type":"Polygon","coordinates":[[[30.07519397676347,50.16224628336113],[30.97365059943512,50.16224628336113],[30.97365059943512,50.73806371044743],[30.07519397676347,50.73806371044743],[30.07519397676347,50.16224628336113]]]},"id":"43","properties":{"country":"Ukraine","end":"2023-09-01","name":"Kyiv","start":"2023-08-01"}},{"type":"Feature","geometry":{"geodesic":false,"type":"Polygon","coordinates":[[[17.509291063536025,59.041446022910726],[18.630765050362438,59.041446022910726],[18.630765050362438,59.61726371044743],[17.509291063536025,59.61726371044743],[17.509291063536025,59.041446022910726]]]},"id":"44","properties":{"country":"Sweden","end":"2023-09-01","name":"Stockholm","start":"2023-08-01"}},{"type":"Feature","geometry":{"geodesic":false,"type":"Polygon","coordinates":[[[12.062248966356318,55.38824614416855],[13.076806650773237,55.38824614416855],[13.076806650773237,55.96406371044743],[12.062248966356318,55.96406371044743],[12.062248966356318,55.38824614416855]]]},"id":"45","properties":{"country":"Denmark","end":"2023-09-01","name":"Copenhagen","start":"2023-08-01"}},{"type":"Feature","geometry":{"geodesic":false,"type":"Polygon","coordinates":[[[-9.505201789386238,38.434446508602164],[-8.771900661366978,38.434446508602164],[-8.771900661366978,39.010263710447425],[-9.505201789386238,39.010263710447425],[-9.505201789386238,38.434446508602164]]]},"id":"46","properties":{"country":"Portugal","end":"2023-09-01","name":"Lisbon","start":"2023-08-01"}},{"type":"Feature","geometry":{"geodesic":false,"type":"Polygon","coordinates":[[[3.0917393963400612,6.23654688911305],[3.667610742725732,6.23654688911305],[3.667610742725732,6.81236371044743],[3.0917393963400612,6.81236371044743],[3.0917393963400612,6.23654688911305]]]},"id":"47","properties":{"country":"Nigeria","end":"2023-09-01","name":"Lagos","start":"2023-08-01"}},{"type":"Feature","geometry":{"geodesic":false,"type":"Polygon","coordinates":[[[30.905869920045113,29.756546631977297],[31.56679556817151,29.756546631977297],[31.56679556817151,30.332363710447428],[30.905869920045113,30.332363710447428],[30.905869920045113,29.756546631977297]]]},"id":"48","properties":{"country":"Egypt","end":"2023-09-01","name":"Cairo","start":"2023-08-01"}},{"type":"Feature","geometry":{"geodesic":false,"type":"Polygon","coordinates":[[[27.728864088152232,-26.491952772972443],[28.36656731343248,-26.491952772972443],[28.36656731343248,-25.916136289552576],[27.728864088152232,-25.916136289552576],[27.728864088152232,-26.491952772972443]]]},"id":"49","properties":{"country":"South Africa","end":"2023-09-01","name":"Johannesburg","start":"2023-08-01"}},{"type":"Feature","geometry":{"geodesic":false,"type":"Polygon","coordinates":[[[36.536203418782655,-1.5799530347821609],[37.108496094050466,-1.5799530347821609],[37.108496094050466,-1.00413628955257],[36.536203418782655,-1.00413628955257],[36.536203418782655,-1.5799530347821609]]]},"id":"50","properties":{"country":"Kenya","end":"2023-09-01","name":"Nairobi","start":"2023-08-01"}},{"type":"Feature","geometry":{"geodesic":false,"type":"Polygon","coordinates":[[[38.46866469052276,8.692746864861984],[39.04790544430864,8.692746864861984],[39.04790544430864,9.26856371044743],[38.46866469052276,9.26856371044743],[38.46866469052276,8.692746864861984]]]},"id":"51","properties":{"country":"Ethiopia","end":"2023-09-01","name":"Addis Ababa","start":"2023-08-01"}},{"type":"Feature","geometry":{"geodesic":false,"type":"Polygon","coordinates":[[[-0.4739372772025274,5.315846898140265],[0.10095246478225928,5.315846898140265],[0.10095246478225928,5.891663710447429],[-0.4739372772025274,5.891663710447429],[-0.4739372772025274,5.315846898140265]]]},"id":"52","properties":{"country":"Ghana","end":"2023-09-01","name":"Accra","start":"2023-08-01"}},{"type":"Feature","geometry":{"geodesic":false,"type":"Polygon","coordinates":[[[-17.76295795778623,14.428846806807933],[-17.17141598601003,14.428846806807933],[-17.17141598601003,15.004663710447431],[-17.76295795778623,15.004663710447431],[-17.76295795778623,14.428846806807933]]]},"id":"53","properties":{"country":"Senegal","end":"2023-09-01","name":"Dakar","start":"2023-08-01"}},{"type":"Feature","geometry":{"geodesic":false,"type":"Polygon","coordinates":[[[-7.932459664658979,33.28524658481724],[-7.245792119936785,33.28524658481724],[-7.245792119936785,33.86106371044743],[-7.932459664658979,33.86106371044743],[-7.932459664658979,33.28524658481724]]]},"id":"54","properties":{"country":"Morocco","end":"2023-09-01","name":"Casablanca","start":"2023-08-01"}},{"type":"Feature","geometry":{"geodesic":false,"type":"Polygon","coordinates":[[[2.7024881930346876,36.465946538923326],[3.4165476708567892,36.465946538923326],[3.4165476708567892,37.04176371044743],[2.7024881930346876,37.04176371044743],[2.7024881930346876,36.465946538923326]]]},"id":"55","properties":{"country":"Algeria","end":"2023-09-01","name":"Algiers","start":"2023-08-01"}},{"type":"Feature","geometry":{"geodesic":false,"type":"Polygon","coordinates":[[[9.824943444634078,36.518646538131975],[10.539493991330868,36.518646538131975],[10.539493991330868,37.09446371044743],[9.824943444634078,37.09446371044743],[9.824943444634078,36.518646538131975]]]},"id":"56","properties":{"country":"Tunisia","end":"2023-09-01","name":"Tunis","start":"2023-08-01"}},{"type":"Feature","geometry":{"geodesic":false,"type":"Polygon","coordinates":[[[38.92063941539992,-7.080252981052595],[39.496834478911275,-7.080252981052595],[39.496834478911275,-6.504436289552569],[38.92063941539992,-6.504436289552569],[38.92063941539992,-7.080252981052595]]]},"id":"57","properties":{"country":"Tanzania","end":"2023-09-01","name":"Dar es Salaam","start":"2023-08-01"}},{"type":"Feature","geometry":{"geodesic":false,"type":"Polygon","coordinates":[[[14.97980547954961,-4.7297530041120455],[15.553678461630312,-4.7297530041120455],[15.553678461630312,-4.15393628955257],[14.97980547954961,-4.15393628955257],[14.97980547954961,-4.7297530041120455]]]},"id":"58","properties":{"country":"DRC","end":"2023-09-01","name":"Kinshasa","start":"2023-08-01"}},{"type":"Feature","geometry":{"geodesic":false,"type":"Polygon","coordinates":[[[12.945318691518317,-9.126852960784959],[13.52434747212471,-9.126852960784959],[13.52434747212471,-8.551036289552567],[12.945318691518317,-8.551036289552567],[12.945318691518317,-9.126852960784959]]]},"id":"59","properties":{"country":"Angola","end":"2023-09-01","name":"Luanda","start":"2023-08-01"}},{"type":"Feature","geometry":{"geodesic":false,"type":"Polygon","coordinates":[[[-4.295156903738787,5.072046900525948],[-3.720501701863948,5.072046900525948],[-3.720501701863948,5.64786371044743],[-4.295156903738787,5.64786371044743],[-4.295156903738787,5.072046900525948]]]},"id":"60","properties":{"country":"Côte d’Ivoire","end":"2023-09-01","name":"Abidjan","start":"2023-08-01"}},{"type":"Feature","geometry":{"geodesic":false,"type":"Polygon","coordinates":[[[32.26355204165765,15.212846798666178],[32.857282785566674,15.212846798666178],[32.857282785566674,15.78866371044743],[32.26355204165765,15.78866371044743],[32.26355204165765,15.212846798666178]]]},"id":"61","properties":{"country":"Sudan","end":"2023-09-01","name":"Khartoum","start":"2023-08-01"}},{"type":"Feature","geometry":{"geodesic":false,"type":"Polygon","coordinates":[[[76.77697815076851,28.416246649011967],[77.42925931865163,28.416246649011967],[77.42925931865163,28.992063710447432],[76.77697815076851,28.992063710447432],[76.77697815076851,28.416246649011967]]]},"id":"62","properties":{"country":"India","end":"2023-09-01","name":"Delhi","start":"2023-08-01"}},{"type":"Feature","geometry":{"geodesic":false,"type":"Polygon","coordinates":[[[72.57555144407056,18.78814676070783],[73.18092733624503,18.78814676070783],[73.18092733624503,19.36396371044743],[72.57555144407056,19.36396371044743],[72.57555144407056,18.78814676070783]]]},"id":"63","properties":{"country":"India","end":"2023-09-01","name":"Mumbai","start":"2023-08-01"}},{"type":"Feature","geometry":{"geodesic":false,"type":"Polygon","coordinates":[[[88.05466745277515,22.284746721993322],[88.67426137518206,22.284746721993322],[88.67426137518206,22.860563710447433],[88.05466745277515,22.860563710447433],[88.05466745277515,22.284746721993322]]]},"id":"64","properties":{"country":"India","end":"2023-09-01","name":"Kolkata","start":"2023-08-01"}},{"type":"Feature","geometry":{"geodesic":false,"type":"Polygon","coordinates":[[[79.97751292422477,12.79484682359741],[80.56489577156799,12.79484682359741],[80.56489577156799,13.370663710447431],[79.97751292422477,13.370663710447431],[79.97751292422477,12.79484682359741]]]},"id":"65","properties":{"country":"India","end":"2023-09-01","name":"Chennai","start":"2023-08-01"}},{"type":"Feature","geometry":{"geodesic":false,"type":"Polygon","coordinates":[[[77.30154404350506,12.68374682473077],[77.88866351550318,12.68374682473077],[77.88866351550318,13.259563710447429],[77.30154404350506,13.259563710447429],[77.30154404350506,12.68374682473077]]]},"id":"66","properties":{"country":"India","end":"2023-09-01","name":"Bangalore","start":"2023-08-01"}},{"type":"Feature","geometry":{"geodesic":false,"type":"Polygon","coordinates":[[[66.6952011937628,24.573646695602054],[67.32576477299837,24.573646695602054],[67.32576477299837,25.14946371044743],[66.6952011937628,25.14946371044743],[66.6952011937628,24.573646695602054]]]},"id":"67","properties":{"country":"Pakistan","end":"2023-09-01","name":"Karachi","start":"2023-08-01"}},{"type":"Feature","geometry":{"geodesic":false,"type":"Polygon","coordinates":[[[90.10039731620854,23.522446707836206],[90.72575113020658,23.522446707836206],[90.72575113020658,24.098263710447434],[90.10039731620854,24.098263710447434],[90.10039731620854,23.522446707836206]]]},"id":"68","properties":{"country":"Bangladesh","end":"2023-09-01","name":"Dhaka","start":"2023-08-01"}},{"type":"Feature","geometry":{"geodesic":false,"type":"Polygon","coordinates":[[[74.0237765364104,31.232546612682036],[74.69492188836304,31.232546612682036],[74.69492188836304,31.80836371044743],[74.0237765364104,31.80836371044743],[74.0237765364104,31.232546612682036]]]},"id":"69","properties":{"country":"Pakistan","end":"2023-09-01","name":"Lahore","start":"2023-08-01"}},{"type":"Feature","geometry":{"geodesic":false,"type":"Polygon","coordinates":[[[85.00146754182212,27.429346661280885],[85.64775036702574,27.429346661280885],[85.64775036702574,28.00516371044743],[85.00146754182212,28.00516371044743],[85.00146754182212,27.429346661280885]]]},"id":"70","properties":{"country":"Nepal","end":"2023-09-01","name":"Kathmandu","start":"2023-08-01"}},{"type":"Feature","geometry":{"geodesic":false,"type":"Polygon","coordinates":[[[79.57350234947491,6.639246885154985],[80.14985092100203,6.639246885154985],[80.14985092100203,7.215063710447429],[79.57350234947491,7.215063710447429],[79.57350234947491,6.639246885154985]]]},"id":"71","properties":{"country":"Sri Lanka","end":"2023-09-01","name":"Colombo","start":"2023-08-01"}},{"type":"Feature","geometry":{"geodesic":false,"type":"Polygon","coordinates":[[[116.03527296772695,39.61634648959411],[116.78106475618235,39.61634648959411],[116.78106475618235,40.19216371044744],[116.03527296772695,40.19216371044744],[116.03527296772695,39.61634648959411]]]},"id":"72","properties":{"country":"China","end":"2023-09-01","name":"Beijing","start":"2023-08-01"}},{"type":"Feature","geometry":{"geodesic":false,"type":"Polygon","coordinates":[[[121.13980719493001,30.94254661651975],[121.80888457795072,30.94254661651975],[121.80888457795072,31.518363710447435],[121.13980719493001,31.518363710447435],[121.13980719493001,30.94254661651975]]]},"id":"73","properties":{"country":"China","end":"2023-09-01","name":"Shanghai","start":"2023-08-01"}},{"type":"Feature","geometry":{"geodesic":false,"type":"Polygon","coordinates":[[[113.74873346252646,22.25524672232764],[114.36819491065951,22.25524672232764],[114.36819491065951,22.83106371044743],[113.74873346252646,22.83106371044743],[113.74873346252646,22.25524672232764]]]},"id":"74","properties":{"country":"China","end":"2023-09-01","name":"Shenzhen","start":"2023-08-01"}},{"type":"Feature","geometry":{"geodesic":false,"type":"Polygon","coordinates":[[[112.95390145087174,22.84124671565987],[113.57603606670276,22.84124671565987],[113.57603606670276,23.417063710447437],[112.95390145087174,23.417063710447437],[112.95390145087174,22.84124671565987]]]},"id":"75","properties":{"country":"China","end":"2023-09-01","name":"Guangzhou","start":"2023-08-01"}},{"type":"Feature","geometry":{"geodesic":false,"type":"Polygon","coordinates":[[[113.86073066322683,22.031446724859357],[114.47919427884148,22.031446724859357],[114.47919427884148,22.60726371044743],[113.86073066322683,22.60726371044743],[113.86073066322683,22.031446724859357]]]},"id":"76","properties":{"country":"China","end":"2023-09-01","name":"Hong Kong","start":"2023-08-01"}},{"type":"Feature","geometry":{"geodesic":false,"type":"Polygon","coordinates":[[[121.25026343906717,24.7451466935868],[121.88170546400802,24.7451466935868],[121.88170546400802,25.32096371044743],[121.25026343906717,25.32096371044743],[121.25026343906717,24.7451466935868]]]},"id":"77","properties":{"country":"Taiwan","end":"2023-09-01","name":"Taipei","start":"2023-08-01"}},{"type":"Feature","geometry":{"geodesic":false,"type":"Polygon","coordinates":[[[126.61784199079794,37.27864652659791],[127.33961858938845,37.27864652659791],[127.33961858938845,37.854463710447426],[126.61784199079794,37.854463710447426],[126.61784199079794,37.27864652659791]]]},"id":"78","properties":{"country":"South Korea","end":"2023-09-01","name":"Seoul","start":"2023-08-01"}},{"type":"Feature","geometry":{"geodesic":false,"type":"Polygon","coordinates":[[[139.34019701933101,35.401646554679736],[140.04460796973322,35.401646554679736],[140.04460796973322,35.97746371044743],[139.34019701933101,35.97746371044743],[139.34019701933101,35.401646554679736]]]},"id":"79","properties":{"country":"Japan","end":"2023-09-01","name":"Tokyo","start":"2023-08-01"}},{"type":"Feature","geometry":{"geodesic":false,"type":"Polygon","coordinates":[[[135.1550731675929,34.40584656904967],[135.8509043753047,34.40584656904967],[135.8509043753047,34.98166371044743],[135.1550731675929,34.98166371044743],[135.1550731675929,34.40584656904967]]]},"id":"80","properties":{"country":"Japan","end":"2023-09-01","name":"Osaka","start":"2023-08-01"}},{"type":"Feature","geometry":{"geodesic":false,"type":"Polygon","coordinates":[[[100.20779171286851,13.468446816704098],[100.79682399254916,13.468446816704098],[100.79682399254916,14.04426371044743],[100.20779171286851,14.04426371044743],[100.20779171286851,13.468446816704098]]]},"id":"81","properties":{"country":"Thailand","end":"2023-09-01","name":"Bangkok","start":"2023-08-01"}},{"type":"Feature","geometry":{"geodesic":false,"type":"Polygon","coordinates":[[[106.55827498297005,-6.496652986796864],[107.13380128632957,-6.496652986796864],[107.13380128632957,-5.920836289552571],[106.55827498297005,-5.920836289552571],[106.55827498297005,-6.496652986796864]]]},"id":"82","properties":{"country":"Indonesia","end":"2023-09-01","name":"Jakarta","start":"2023-08-01"}},{"type":"Feature","geometry":{"geodesic":false,"type":"Polygon","coordinates":[[[120.68909955795509,14.311646808020045],[121.28032521218384,14.311646808020045],[121.28032521218384,14.887463710447433],[120.68909955795509,14.887463710447433],[120.68909955795509,14.311646808020045]]]},"id":"83","properties":{"country":"Philippines","end":"2023-09-01","name":"Manila","start":"2023-08-01"}},{"type":"Feature","geometry":{"geodesic":false,"type":"Polygon","coordinates":[[[106.33894311834847,10.535246846465352],[106.92144349301024,10.535246846465352],[106.92144349301024,11.111063710447432],[106.33894311834847,11.111063710447432],[106.33894311834847,10.535246846465352]]]},"id":"84","properties":{"country":"Vietnam","end":"2023-09-01","name":"Ho Chi Minh City","start":"2023-08-01"}},{"type":"Feature","geometry":{"geodesic":false,"type":"Polygon","coordinates":[[[105.52827837061399,20.73994673931673],[106.14122741029685,20.73994673931673],[106.14122741029685,21.315763710447428],[105.52827837061399,21.315763710447428],[105.52827837061399,20.73994673931673]]]},"id":"85","properties":{"country":"Vietnam","end":"2023-09-01","name":"Hanoi","start":"2023-08-01"}},{"type":"Feature","geometry":{"geodesic":false,"type":"Polygon","coordinates":[[[101.4008610510146,2.8511469221863615],[101.97386489037973,2.8511469221863615],[101.97386489037973,3.4269637104474295],[101.4008610510146,3.4269637104474295],[101.4008610510146,2.8511469221863615]]]},"id":"86","properties":{"country":"Malaysia","end":"2023-09-01","name":"Kuala Lumpur","start":"2023-08-01"}},{"type":"Feature","geometry":{"geodesic":false,"type":"Polygon","coordinates":[[[103.53410495322025,1.064246939550264],[104.10640965524901,1.064246939550264],[104.10640965524901,1.6400637104474305],[103.53410495322025,1.6400637104474305],[103.53410495322025,1.064246939550264]]]},"id":"87","properties":{"country":"Singapore","end":"2023-09-01","name":"Singapore","start":"2023-08-01"}},{"type":"Feature","geometry":{"geodesic":false,"type":"Polygon","coordinates":[[[104.63670853260825,11.268546839084404],[105.22068501133886,11.268546839084404],[105.22068501133886,11.844363710447428],[104.63670853260825,11.844363710447428],[104.63670853260825,11.268546839084404]]]},"id":"88","properties":{"country":"Cambodia","end":"2023-09-01","name":"Phnom Penh","start":"2023-08-01"}},{"type":"Feature","geometry":{"geodesic":false,"type":"Polygon","coordinates":[[[95.89670026623978,16.57824678433921],[96.49455055709272,16.57824678433921],[96.49455055709272,17.154063710447428],[95.89670026623978,17.154063710447428],[95.89670026623978,16.57824678433921]]]},"id":"89","properties":{"country":"Myanmar","end":"2023-09-01","name":"Yangon","start":"2023-08-01"}},{"type":"Feature","geometry":{"geodesic":false,"type":"Polygon","coordinates":[[[150.86516412587835,-34.156652672831605],[151.55426386368694,-34.156652672831605],[151.55426386368694,-33.580836289552565],[150.86516412587835,-33.580836289552565],[150.86516412587835,-34.156652672831605]]]},"id":"90","properties":{"country":"Australia","end":"2023-09-01","name":"Sydney","start":"2023-08-01"}},{"type":"Feature","geometry":{"geodesic":false,"type":"Polygon","coordinates":[[[144.60138244415364,-38.101452614084664],[145.3256444364293,-38.101452614084664],[145.3256444364293,-37.52563628955257],[144.60138244415364,-37.52563628955257],[144.60138244415364,-38.101452614084664]]]},"id":"91","properties":{"country":"Australia","end":"2023-09-01","name":"Melbourne","start":"2023-08-01"}},{"type":"Feature","geometry":{"geodesic":false,"type":"Polygon","coordinates":[[[152.70307924328324,-27.757652757463866],[153.3479512911512,-27.757652757463866],[153.3479512911512,-27.181836289552574],[152.70307924328324,-27.181836289552574],[152.70307924328324,-27.757652757463866]]]},"id":"92","properties":{"country":"Australia","end":"2023-09-01","name":"Brisbane","start":"2023-08-01"}},{"type":"Feature","geometry":{"geodesic":false,"type":"Polygon","coordinates":[[[115.52375156183902,-32.23835269942556],[116.19807696381282,-32.23835269942556],[116.19807696381282,-31.662536289552577],[115.52375156183902,-31.662536289552577],[115.52375156183902,-32.23835269942556]]]},"id":"93","properties":{"country":"Australia","end":"2023-09-01","name":"Perth","start":"2023-08-01"}},{"type":"Feature","geometry":{"geodesic":false,"type":"Polygon","coordinates":[[[174.40620558291008,-37.13635262901462],[175.1212216158612,-37.13635262901462],[175.1212216158612,-36.560536289552566],[174.40620558291008,-36.560536289552566],[174.40620558291008,-37.13635262901462]]]},"id":"94","properties":{"country":"New Zealand","end":"2023-09-01","name":"Auckland","start":"2023-08-01"}},{"type":"Feature","geometry":{"geodesic":false,"type":"Polygon","coordinates":[[[54.95522085712988,24.91694669156244],[55.5875510098378,24.91694669156244],[55.5875510098378,25.492763710447424],[54.95522085712988,25.492763710447424],[54.95522085712988,24.91694669156244]]]},"id":"95","properties":{"country":"UAE","end":"2023-09-01","name":"Dubai","start":"2023-08-01"}},{"type":"Feature","geometry":{"geodesic":false,"type":"Polygon","coordinates":[[[46.360975475206374,24.42574669733556],[46.990787977129564,24.42574669733556],[46.990787977129564,25.001563710447424],[46.360975475206374,25.001563710447424],[46.360975475206374,24.42574669733556]]]},"id":"96","properties":{"country":"Saudi Arabia","end":"2023-09-01","name":"Riyadh","start":"2023-08-01"}},{"type":"Feature","geometry":{"geodesic":false,"type":"Polygon","coordinates":[[[51.03749833950052,35.40134655468412],[51.74190664109006,35.40134655468412],[51.74190664109006,35.97716371044743],[51.03749833950052,35.97716371044743],[51.03749833950052,35.40134655468412]]]},"id":"97","properties":{"country":"Iran","end":"2023-09-01","name":"Tehran","start":"2023-08-01"}},{"type":"Feature","geometry":{"geodesic":false,"type":"Polygon","coordinates":[[[34.444825594537804,31.79744660513822],[35.12008605149342,31.79744660513822],[35.12008605149342,32.37326371044743],[34.444825594537804,32.37326371044743],[34.444825594537804,31.79744660513822]]]},"id":"98","properties":{"country":"Israel","end":"2023-09-01","name":"Tel Aviv","start":"2023-08-01"}},{"type":"Feature","geometry":{"geodesic":false,"type":"Polygon","coordinates":[[[44.02445610707576,33.027346588388475],[44.70908558112413,33.027346588388475],[44.70908558112413,33.60316371044743],[44.02445610707576,33.60316371044743],[44.02445610707576,33.027346588388475]]]},"id":"99","properties":{"country":"Iraq","end":"2023-09-01","name":"Baghdad","start":"2023-08-01"}}]}